GLOBALSTAR M001         
1 25162U 98008A   24215.35637446 -.00000078  00000+0  14406-3 0  9996
2 25162  52.0011 181.1920 0001741 305.9089 209.4170 12.38189636204215
GLOBALSTAR M004         
1 25163U 98008B   24215.65934079 -.00000029  00000+0  41288-3 0  9996
2 25163  52.0012 305.8872 0002391 303.3997 204.3031 12.63366892221522
GLOBALSTAR M002         
1 25164U 98008C   24215.75215030 -.00000040  00000+0  71531-3 0  9994
2 25164  52.0037 318.6257 0000792 268.8310  91.2419 11.61502742147136
GLOBALSTAR M003         
1 25165U 98008D   24215.62427904  .00000060  00000+0  15923-2 0  9999
2 25165  51.9931 330.8077 0007819  17.7180 356.2019 12.12024009194591
GLOBALSTAR M014         
1 25306U 98023A   24215.87871431 -.00000040  00000+0  70234-3 0  9994
2 25306  51.9807 248.2250 0001022 145.7949  25.4887 11.65469661154048
GLOBALSTAR M006         
1 25307U 98023B   24215.68727111 -.00000036  00000+0  81619-3 0  9993
2 25307  51.9938 289.2797 0003710 243.9256 285.2292 11.58163825180032
GLOBALSTAR M015         
1 25308U 98023C   24215.61330991 -.00000117  00000+0 -99488-3 0  9997
2 25308  51.9850  13.3298 0012114 226.9057 213.6400 11.48848167157461
GLOBALSTAR M008         
1 25309U 98023D   24215.45595111 -.00000072  00000+0  18656-3 0  9994
2 25309  51.9982  42.1213 0001914 208.5768 159.4016 12.36045928198430
